STARLINK-31564          
1 59526U 24073R   26068.06603499  .00001378  00000+0  59569-4 0  9998
2 59526  43.0026 321.2500 0000756 267.9298  92.1467 15.27593113106089
FLOCK 4G-1              
1 62666U 25009BK  26068.75951132  .00013534  00000+0  50654-3 0  9995
2 62666  97.4059 151.3158 0003180 323.1401  36.9619 15.27421081 63725
